{
  "type": "FeatureCollection",
  "features": [
    {
      "type": "Feature",
      "properties": {
        "norad_id": 66514,
        "name": "SENTINEL-6B",
        "group": "last-30-days",
        "lat": 27.62250373777583,
        "lon": -164.72943455470224,
        "alt_km": 1320.466353703131,
        "timestamp": "2025-12-03T10:52:56.222329+00:00",
        "meta_object_name": "SENTINEL-6B",
        "meta_object_id": "2025-264A",
        "meta_epoch": "2025-12-03T01:23:27.973824",
        "meta_mean_motion": 12.85877453,
        "meta_eccentricity": 0.0011537,
        "meta_inclination": 66.0389,
        "meta_ra_of_asc_node": 182.6439,
        "meta_arg_of_pericenter": 268.7049,
        "meta_mean_anomaly": 91.2647,
        "meta_ephemeris_type": 0,
        "meta_classification_type": "U",
        "meta_norad_cat_id": 66514,
        "meta_element_set_no": 999,
        "meta_rev_at_epoch": 204,
        "meta_bstar": 0.00030684,
        "meta_mean_motion_dot": 1.4e-07,
        "meta_mean_motion_ddot": 0,
        "tle_line1": "1 66514U 25264A   25337.05796266  .00000014  00000+0  30684-3 0  9990",
        "tle_line2": "2 66514  66.0389 182.6439 0011537 268.7049  91.2647 12.85877453  2047"
      },
      "geometry": {
        "type": "Point",
        "coordinates": [
          -164.72943455470224,
          27.62250373777583
        ]
      }
    },
    {
      "type": "Feature",
      "properties": {
        "norad_id": 66516,
        "name": "STARLINK-35924",
        "group": "last-30-days",
        "lat": 37.80695339766879,
        "lon": -127.2535622103617,
        "alt_km": 339.45888336127337,
        "timestamp": "2025-12-03T10:52:56.222340+00:00",
        "meta_object_name": "STARLINK-35924",
        "meta_object_id": "2025-265A",
        "meta_epoch": "2025-12-03T04:00:01.998720",
        "meta_mean_motion": 15.75076169,
        "meta_eccentricity": 0.0001725,
        "meta_inclination": 42.9999,
        "meta_ra_of_asc_node": 110.8568,
        "meta_arg_of_pericenter": 265.7578,
        "meta_mean_anomaly": 22.2989,
        "meta_ephemeris_type": 0,
        "meta_classification_type": "U",
        "meta_norad_cat_id": 66516,
        "meta_element_set_no": 999,
        "meta_rev_at_epoch": 343,
        "meta_bstar": -0.00024288,
        "meta_mean_motion_dot": -0.00037681,
        "meta_mean_motion_ddot": 0,
        "tle_line1": "1 66516U 25265A   25337.16668980 -.00037681  00000+0 -24288-3 0  9991",
        "tle_line2": "2 66516  42.9999 110.8568 0001725 265.7578  22.2989 15.75076169  3431"
      },
      "geometry": {
        "type": "Point",
        "coordinates": [
          -127.2535622103617,
          37.80695339766879
        ]
      }
    },
    {
      "type": "Feature",
      "properties": {
        "norad_id": 66517,
        "name": "STARLINK-35937",
        "group": "last-30-days",
        "lat": 37.05806448198754,
        "lon": -125.02188284596991,
        "alt_km": 339.46780082113946,
        "timestamp": "2025-12-03T10:52:56.222351+00:00",
        "meta_object_name": "STARLINK-35937",
        "meta_object_id": "2025-265B",
        "meta_epoch": "2025-12-03T04:00:01.998720",
        "meta_mean_motion": 15.75069143,
        "meta_eccentricity": 0.0001597,
        "meta_inclination": 42.9997,
        "meta_ra_of_asc_node": 110.8526,
        "meta_arg_of_pericenter": 266.3268,
        "meta_mean_anomaly": 23.654,
        "meta_ephemeris_type": 0,
        "meta_classification_type": "U",
        "meta_norad_cat_id": 66517,
        "meta_element_set_no": 999,
        "meta_rev_at_epoch": 345,
        "meta_bstar": -8.4109e-05,
        "meta_mean_motion_dot": -0.00013394,
        "meta_mean_motion_ddot": 0,
        "tle_line1": "1 66517U 25265B   25337.16668980 -.00013394  00000+0 -84109-4 0  9996",
        "tle_line2": "2 66517  42.9997 110.8526 0001597 266.3268  23.6540 15.75069143  3458"
      },
      "geometry": {
        "type": "Point",
        "coordinates": [
          -125.02188284596991,
          37.05806448198754
        ]
      }
    },
    {
      "type": "Feature",
      "properties": {
        "norad_id": 66518,
        "name": "STARLINK-35962",
        "group": "last-30-days",
        "lat": 36.27445761110285,
        "lon": -122.85276017521166,
        "alt_km": 339.6246926613021,
        "timestamp": "2025-12-03T10:52:56.222363+00:00",
        "meta_object_name": "STARLINK-35962",
        "meta_object_id": "2025-265C",
        "meta_epoch": "2025-12-03T04:00:01.998720",
        "meta_mean_motion": 15.75049112,
        "meta_eccentricity": 0.0001885,
        "meta_inclination": 42.9996,
        "meta_ra_of_asc_node": 110.8476,
        "meta_arg_of_pericenter": 259.8663,
        "meta_mean_anomaly": 32.0331,
        "meta_ephemeris_type": 0,
        "meta_classification_type": "U",
        "meta_norad_cat_id": 66518,
        "meta_element_set_no": 999,
        "meta_rev_at_epoch": 345,
        "meta_bstar": 0.00026245,
        "meta_mean_motion_dot": 0.00040047,
        "meta_mean_motion_ddot": 0,
        "tle_line1": "1 66518U 25265C   25337.16668980  .00040047  00000+0  26245-3 0  9996",
        "tle_line2": "2 66518  42.9996 110.8476 0001885 259.8663  32.0331 15.75049112  3454"
      },
      "geometry": {
        "type": "Point",
        "coordinates": [
          -122.85276017521166,
          36.27445761110285
        ]
      }
    },
    {
      "type": "Feature",
      "properties": {
        "norad_id": 66519,
        "name": "STARLINK-35931",
        "group": "last-30-days",
        "lat": 35.4470173139234,
        "lon": -120.71417535070047,
        "alt_km": 339.58616588253426,
        "timestamp": "2025-12-03T10:52:56.222373+00:00",
        "meta_object_name": "STARLINK-35931",
        "meta_object_id": "2025-265D",
        "meta_epoch": "2025-12-03T04:00:01.998720",
        "meta_mean_motion": 15.7507681,
        "meta_eccentricity": 0.0001801,
        "meta_inclination": 42.9998,
        "meta_ra_of_asc_node": 110.8424,
        "meta_arg_of_pericenter": 252.5593,
        "meta_mean_anomaly": 41.2499,
        "meta_ephemeris_type": 0,
        "meta_classification_type": "U",
        "meta_norad_cat_id": 66519,
        "meta_element_set_no": 999,
        "meta_rev_at_epoch": 345,
        "meta_bstar": -5.9652e-05,
        "meta_mean_motion_dot": -9.646e-05,
        "meta_mean_motion_ddot": 0,
        "tle_line1": "1 66519U 25265D   25337.16668980 -.00009646  00000+0 -59652-4 0  9998",
        "tle_line2": "2 66519  42.9998 110.8424 0001801 252.5593  41.2499 15.75076810  3452"
      },
      "geometry": {
        "type": "Point",
        "coordinates": [
          -120.71417535070047,
          35.4470173139234
        ]
      }
    },
    {
      "type": "Feature",
      "properties": {
        "norad_id": 66520,
        "name": "STARLINK-35952",
        "group": "last-30-days",
        "lat": 34.583685174634894,
        "lon": -118.62372627844347,
        "alt_km": 339.9023151029196,
        "timestamp": "2025-12-03T10:52:56.222383+00:00",
        "meta_object_name": "STARLINK-35952",
        "meta_object_id": "2025-265E",
        "meta_epoch": "2025-12-03T04:00:01.998720",
        "meta_mean_motion": 15.75085576,
        "meta_eccentricity": 0.0001776,
        "meta_inclination": 42.9996,
        "meta_ra_of_asc_node": 110.8374,
        "meta_arg_of_pericenter": 264.3579,
        "meta_mean_anomaly": 31.3712,
        "meta_ephemeris_type": 0,
        "meta_classification_type": "U",
        "meta_norad_cat_id": 66520,
        "meta_element_set_no": 999,
        "meta_rev_at_epoch": 345,
        "meta_bstar": -0.00034849,
        "meta_mean_motion_dot": -0.00053779,
        "meta_mean_motion_ddot": 0,
        "tle_line1": "1 66520U 25265E   25337.16668980 -.00053779  00000+0 -34849-3 0  9996",
        "tle_line2": "2 66520  42.9996 110.8374 0001776 264.3579  31.3712 15.75085576  3459"
      },
      "geometry": {
        "type": "Point",
        "coordinates": [
          -118.62372627844347,
          34.583685174634894
        ]
      }
    },
    {
      "type": "Feature",
      "properties": {
        "norad_id": 66521,
        "name": "STARLINK-35915",
        "group": "last-30-days",
        "lat": 33.68857484246081,
        "lon": -116.58389855454301,
        "alt_km": 339.9219093532738,
        "timestamp": "2025-12-03T10:52:56.222393+00:00",
        "meta_object_name": "STARLINK-35915",
        "meta_object_id": "2025-265F",
        "meta_epoch": "2025-12-03T04:00:01.998720",
        "meta_mean_motion": 15.75062348,
        "meta_eccentricity": 0.0001819,
        "meta_inclination": 42.9996,
        "meta_ra_of_asc_node": 110.8326,
        "meta_arg_of_pericenter": 261.4372,
        "meta_mean_anomaly": 36.204,
        "meta_ephemeris_type": 0,
        "meta_classification_type": "U",
        "meta_norad_cat_id": 66521,
        "meta_element_set_no": 999,
        "meta_rev_at_epoch": 345,
        "meta_bstar": 0.0002165,
        "meta_mean_motion_dot": 0.00032943,
        "meta_mean_motion_ddot": 0,
        "tle_line1": "1 66521U 25265F   25337.16668980  .00032943  00000+0  21650-3 0  9991",
        "tle_line2": "2 66521  42.9996 110.8326 0001819 261.4372  36.2040 15.75062348  3454"
      },
      "geometry": {
        "type": "Point",
        "coordinates": [
          -116.58389855454301,
          33.68857484246081
        ]
      }
    }
  ]
}